start=new Date('2023-03-14T00:00:00.000Z').valueOf();
sats=[{"TLE_LINE2":"2 55383  43.0003 124.8045 0001783 260.1491  99.9175 15.71299534  7735","EPOCH":"2023-03-13T12:39:51.677280","CLASSIFICATION_TYPE":"U","MEAN_MOTION_DDOT":"0.0000000000000","MEAN_MOTION_DOT":"-0.00013112","ELEMENT_SET_NO":"999","EPHEMERIS_TYPE":"0","NORAD_CAT_ID":"55383","BSTAR":"-0.00009692700000","GP_ID":"227974001","PERIAPSIS":"353.983","TLE_LINE1":"1 55383U 23013BE  23072.52768145 -.00013112  00000-0 -96927-4 0  9992","MEAN_MOTION":"15.71299534","PERIOD":"91.644","COUNTRY_CODE":"US","RCS_SIZE":"LARGE","OBJECT_NAME":"STARLINK-5531","OBJECT_TYPE":"PAYLOAD","LAUNCH_DATE":"2023-01-26","CENTER_NAME":"EARTH","RA_OF_ASC_NODE":"124.8045","ARG_OF_PERICENTER":"260.1491","MEAN_ELEMENT_THEORY":"SGP4","SITE":"AFETR","MEAN_ANOMALY":"99.9175","SEMIMAJOR_AXIS":"6733.319","REF_FRAME":"TEME","INCLINATION":"43.0003","FILE":"3859114","TIME_SYSTEM":"UTC","OBJECT_ID":"2023-013BE","DECAY_DATE":null,"APOAPSIS":"356.384","REV_AT_EPOCH":"773","ECCENTRICITY":"0.00017830"},{"LAUNCH_DATE":"2023-01-26","PERIOD":"94.349","OBJECT_NAME":"STARLINK-5537","RCS_SIZE":"LARGE","COUNTRY_CODE":"US","OBJECT_TYPE":"PAYLOAD","TIME_SYSTEM":"UTC","DECAY_DATE":null,"OBJECT_ID":"2023-013BF","APOAPSIS":"487.894","ECCENTRICITY":"0.00012610","REV_AT_EPOCH":"130","ARG_OF_PERICENTER":"267.8098","RA_OF_ASC_NODE":"126.4313","MEAN_ELEMENT_THEORY":"SGP4","CENTER_NAME":"EARTH","MEAN_ANOMALY":"314.9069","SEMIMAJOR_AXIS":"6865.164","REF_FRAME":"TEME","SITE":"AFETR","FILE":"3859631","INCLINATION":"43.0003","ELEMENT_SET_NO":"999","MEAN_MOTION_DOT":"-0.01197547","EPHEMERIS_TYPE":"0","TLE_LINE2":"2 55384  43.0003 126.4313 0001261 267.8098 314.9069 15.26252579  1307","EPOCH":"2023-03-13T22:00:00.999936","CLASSIFICATION_TYPE":"U","MEAN_MOTION_DDOT":"0.0000000000000","PERIAPSIS":"486.163","MEAN_MOTION":"15.26252579","TLE_LINE1":"1 55384U 23013BF  23072.91667824 -.01197547  00000-0 -49264-1 0  9993","NORAD_CAT_ID":"55384","GP_ID":"228036908","BSTAR":"-0.04926400000000"},{"MEAN_MOTION_DDOT":"0.0000000000000","EPOCH":"2023-03-13T22:00:00.999936","CLASSIFICATION_TYPE":"U","TLE_LINE2":"2 55385  43.0003 126.2805 0001342 267.0310  18.0442 15.28081547  1305","EPHEMERIS_TYPE":"0","MEAN_MOTION_DOT":"-0.01193815","ELEMENT_SET_NO":"999","GP_ID":"228036659","BSTAR":"-0.04642200000000","NORAD_CAT_ID":"55385","TLE_LINE1":"1 55385U 23013BG  23072.91667824 -.01193815  00000-0 -46422-1 0  9991","MEAN_MOTION":"15.28081547","PERIAPSIS":"480.629","OBJECT_TYPE":"PAYLOAD","COUNTRY_CODE":"US","RCS_SIZE":"LARGE","OBJECT_NAME":"STARLINK-5556","PERIOD":"94.236","LAUNCH_DATE":"2023-01-26","INCLINATION":"43.0003","FILE":"3859631","SITE":"AFETR","SEMIMAJOR_AXIS":"6859.685","REF_FRAME":"TEME","MEAN_ANOMALY":"18.0442","CENTER_NAME":"EARTH","RA_OF_ASC_NODE":"126.2805","ARG_OF_PERICENTER":"267.0310","MEAN_ELEMENT_THEORY":"SGP4","REV_AT_EPOCH":"130","ECCENTRICITY":"0.00013420","APOAPSIS":"482.470","DECAY_DATE":null,"OBJECT_ID":"2023-013BG","TIME_SYSTEM":"UTC"},{"DECAY_DATE":null,"OBJECT_ID":"2023-013BH","TIME_SYSTEM":"UTC","REV_AT_EPOCH":"130","ECCENTRICITY":"0.00013470","APOAPSIS":"483.446","SITE":"AFETR","REF_FRAME":"TEME","SEMIMAJOR_AXIS":"6860.657","MEAN_ANOMALY":"15.0335","CENTER_NAME":"EARTH","RA_OF_ASC_NODE":"126.3067","ARG_OF_PERICENTER":"259.1667","MEAN_ELEMENT_THEORY":"SGP4","FILE":"3859631","INCLINATION":"43.0005","LAUNCH_DATE":"2023-01-26","RCS_SIZE":"LARGE","COUNTRY_CODE":"US","OBJECT_NAME":"STARLINK-5555","PERIOD":"94.256","OBJECT_TYPE":"PAYLOAD","PERIAPSIS":"481.598","TLE_LINE1":"1 55386U 23013BH  23072.91667824 -.01194275  00000-0 -46908-1 0  9992","MEAN_MOTION":"15.27756618","BSTAR":"-0.04690800000000","GP_ID":"228035407","NORAD_CAT_ID":"55386","MEAN_MOTION_DOT":"-0.01194275","ELEMENT_SET_NO":"999","EPHEMERIS_TYPE":"0","TLE_LINE2":"2 55386  43.0005 126.3067 0001347 259.1667  15.0335 15.27756618  1306","MEAN_MOTION_DDOT":"0.0000000000000","CLASSIFICATION_TYPE":"U","EPOCH":"2023-03-13T22:00:00.999936"},{"NORAD_CAT_ID":"55391","BSTAR":"0.00004271000000","GP_ID":"227974406","PERIAPSIS":"356.636","TLE_LINE1":"1 55391U 23014A   23072.07658886  .00004929  00000-0  42710-4 0  9997","MEAN_MOTION":"15.69937850","TLE_LINE2":"2 55391  69.9971 336.1262 0003623 259.4109 100.6679 15.69937850  6540","CLASSIFICATION_TYPE":"U","EPOCH":"2023-03-13T01:50:17.277504","MEAN_MOTION_DDOT":"0.0000000000000","MEAN_MOTION_DOT":"0.00004929","ELEMENT_SET_NO":"999","EPHEMERIS_TYPE":"0","CENTER_NAME":"EARTH","RA_OF_ASC_NODE":"336.1262","ARG_OF_PERICENTER":"259.4109","MEAN_ELEMENT_THEORY":"SGP4","SITE":"AFWTR","MEAN_ANOMALY":"100.6679","SEMIMAJOR_AXIS":"6737.212","REF_FRAME":"TEME","INCLINATION":"69.9971","FILE":"3859127","TIME_SYSTEM":"UTC","OBJECT_ID":"2023-014A","DECAY_DATE":null,"APOAPSIS":"361.518","REV_AT_EPOCH":"654","ECCENTRICITY":"0.00036230","PERIOD":"91.723","RCS_SIZE":"LARGE","COUNTRY_CODE":"US","OBJECT_NAME":"STARLINK-5077","OBJECT_TYPE":"PAYLOAD","LAUNCH_DATE":"2023-01-31"},{"NORAD_CAT_ID":"55392","GP_ID":"228008054","BSTAR":"0.00002847200000","PERIAPSIS":"357.079","TLE_LINE1":"1 55392U 23014B   23072.07424843  .00003213  00000-0  28472-4 0  9996","MEAN_MOTION":"15.69931044","TLE_LINE2":"2 55392  70.0022 336.1331 0002994 261.5515  98.5342 15.69931044  6544","EPOCH":"2023-03-13T01:46:55.064352","CLASSIFICATION_TYPE":"U","MEAN_MOTION_DDOT":"0.0000000000000","MEAN_MOTION_DOT":"0.00003213","ELEMENT_SET_NO":"999","EPHEMERIS_TYPE":"0","CENTER_NAME":"EARTH","ARG_OF_PERICENTER":"261.5515","RA_OF_ASC_NODE":"336.1331","MEAN_ELEMENT_THEORY":"SGP4","SITE":"AFWTR","MEAN_ANOMALY":"98.5342","SEMIMAJOR_AXIS":"6737.231","REF_FRAME":"TEME","INCLINATION":"70.0022","FILE":"3859457","TIME_SYSTEM":"UTC","DECAY_DATE":null,"OBJECT_ID":"2023-014B","APOAPSIS":"361.113","REV_AT_EPOCH":"654","ECCENTRICITY":"0.00029940","PERIOD":"91.724","RCS_SIZE":"LARGE","COUNTRY_CODE":"US","OBJECT_NAME":"STARLINK-5085","OBJECT_TYPE":"PAYLOAD","LAUNCH_DATE":"2023-01-31"},{"EPHEMERIS_TYPE":"0","ELEMENT_SET_NO":"999","MEAN_MOTION_DOT":"0.00005742","MEAN_MOTION_DDOT":"0.0000000000000","EPOCH":"2023-03-13T03:22:20.387136","CLASSIFICATION_TYPE":"U","TLE_LINE2":"2 55393  69.9979 335.9486 0003814 271.6366  88.4392 15.69941378  7498","MEAN_MOTION":"15.69941378","TLE_LINE1":"1 55393U 23014C   23072.14051374  .00005742  00000-0  49453-4 0  9991","PERIAPSIS":"356.497","BSTAR":"0.00004945300000","GP_ID":"228005779","NORAD_CAT_ID":"55393","LAUNCH_DATE":"2023-01-31","OBJECT_TYPE":"PAYLOAD","OBJECT_NAME":"STARLINK-4786","RCS_SIZE":"LARGE","COUNTRY_CODE":"US","PERIOD":"91.723","ECCENTRICITY":"0.00038140","REV_AT_EPOCH":"749","APOAPSIS":"361.636","OBJECT_ID":"2023-014C","DECAY_DATE":null,"TIME_SYSTEM":"UTC","FILE":"3859425","INCLINATION":"69.9979","SEMIMAJOR_AXIS":"6737.202","REF_FRAME":"TEME","MEAN_ANOMALY":"88.4392","SITE":"AFWTR","RA_OF_ASC_NODE":"335.9486","ARG_OF_PERICENTER":"271.6366","MEAN_ELEMENT_THEORY":"SGP4","CENTER_NAME":"EARTH"},{"TIME_SYSTEM":"UTC","DECAY_DATE":null,"OBJECT_ID":"2023-014D","APOAPSIS":"362.028","REV_AT_EPOCH":"654","ECCENTRICITY":"0.00042700","CENTER_NAME":"EARTH","ARG_OF_PERICENTER":"263.7649","MEAN_ELEMENT_THEORY":"SGP4","RA_OF_ASC_NODE":"336.1281","SITE":"AFWTR","MEAN_ANOMALY":"96.3061","SEMIMAJOR_AXIS":"6737.287","REF_FRAME":"TEME","FILE":"3859127","INCLINATION":"69.9979","LAUNCH_DATE":"2023-01-31","PERIOD":"91.725","RCS_SIZE":"LARGE","COUNTRY_CODE":"US","OBJECT_NAME":"STARLINK-5230","OBJECT_TYPE":"PAYLOAD","PERIAPSIS":"356.275","TLE_LINE1":"1 55394U 23014D   23072.07711682 -.00005781  00000-0 -46350-4 0  9997","MEAN_MOTION":"15.69911742","NORAD_CAT_ID":"55394","BSTAR":"-0.00004635000000","GP_ID":"227974662","MEAN_MOTION_DOT":"-0.00005781","ELEMENT_SET_NO":"999","EPHEMERIS_TYPE":"0","TLE_LINE2":"2 55394  69.9979 336.1281 0004270 263.7649  96.3061 15.69911742  6546","EPOCH":"2023-03-13T01:51:02.893248","CLASSIFICATION_TYPE":"U","MEAN_MOTION_DDOT":"0.0000000000000"},{"TLE_LINE2":"2 55395  69.9987 336.1294 0003434 253.1898 106.8921 15.69934535  6547","EPOCH":"2023-03-13T01:50:53.733984","CLASSIFICATION_TYPE":"U","MEAN_MOTION_DDOT":"0.0000000000000","ELEMENT_SET_NO":"999","MEAN_MOTION_DOT":"0.00002667","EPHEMERIS_TYPE":"0","NORAD_CAT_ID":"55395","BSTAR":"0.00002393300000","GP_ID":"227974665","PERIAPSIS":"356.773","MEAN_MOTION":"15.69934535","TLE_LINE1":"1 55395U 23014E   23072.07701081  .00002667  00000-0  23933-4 0  9990","PERIOD":"91.724","OBJECT_NAME":"STARLINK-5274","COUNTRY_CODE":"US","RCS_SIZE":"LARGE","OBJECT_TYPE":"PAYLOAD","LAUNCH_DATE":"2023-01-31","RA_OF_ASC_NODE":"336.1294","ARG_OF_PERICENTER":"253.1898","MEAN_ELEMENT_THEORY":"SGP4","CENTER_NAME":"EARTH","SEMIMAJOR_AXIS":"6737.221","MEAN_ANOMALY":"106.8921","REF_FRAME":"TEME","SITE":"AFWTR","INCLINATION":"69.9987","FILE":"3859127","TIME_SYSTEM":"UTC","DECAY_DATE":null,"OBJECT_ID":"2023-014E","APOAPSIS":"361.400","ECCENTRICITY":"0.00034340","REV_AT_EPOCH":"654"},{"TIME_SYSTEM":"UTC","DECAY_DATE":null,"OBJECT_ID":"2023-014F","APOAPSIS":"361.396","ECCENTRICITY":"0.00034380","REV_AT_EPOCH":"654","ARG_OF_PERICENTER":"261.3137","RA_OF_ASC_NODE":"336.1273","MEAN_ELEMENT_THEORY":"SGP4","CENTER_NAME":"EARTH","SEMIMAJOR_AXIS":"6737.214","REF_FRAME":"TEME","MEAN_ANOMALY":"98.7669","SITE":"AFWTR","INCLINATION":"69.9980","FILE":"3859129","LAUNCH_DATE":"2023-01-31","PERIOD":"91.723","OBJECT_NAME":"STARLINK-5283","RCS_SIZE":"LARGE","COUNTRY_CODE":"US","OBJECT_TYPE":"PAYLOAD","PERIAPSIS":"356.763","MEAN_MOTION":"15.69936977","TLE_LINE1":"1 55396U 23014F   23072.07743098  .00006608  00000-0  56650-4 0  9996","NORAD_CAT_ID":"55396","BSTAR":"0.00005665000000","GP_ID":"227974422","ELEMENT_SET_NO":"999","MEAN_MOTION_DOT":"0.00006608","EPHEMERIS_TYPE":"0","TLE_LINE2":"2 55396  69.9980 336.1273 0003438 261.3137  98.7669 15.69936977  6549","CLASSIFICATION_TYPE":"U","EPOCH":"2023-03-13T01:51:30.036672","MEAN_MOTION_DDOT":"0.0000000000000"}];
